CCSDS_OMM_VERS = 2.0
CREATION_DATE  = 
ORIGINATOR     = 

OBJECT_NAME    = 2025-274J
OBJECT_ID      = 2025-274J
CENTER_NAME    = EARTH
REF_FRAME      = TEME
TIME_SYSTEM    = UTC
MEAN_ELEMENT_THEORY = SGP/SGP4

EPOCH          = 2025-12-19T09:05:48.692256
MEAN_MOTION    = 14.92660568
ECCENTRICITY   = .0011271
INCLINATION    = 97.7399
RA_OF_ASC_NODE = 280.4766
ARG_OF_PERICENTER = 254.1695
MEAN_ANOMALY   = 105.8282

EPHEMERIS_TYPE = 0
CLASSIFICATION_TYPE = U
NORAD_CAT_ID   = 66658
ELEMENT_SET_NO = 999
REV_AT_EPOCH   = 339
BSTAR          = .1503E-3
MEAN_MOTION_DOT = .1494E-4
MEAN_MOTION_DDOT = 0

CCSDS_OMM_VERS = 2.0
CREATION_DATE  = 
ORIGINATOR     = 

OBJECT_NAME    = JACK K
OBJECT_ID      = 2025-274K
CENTER_NAME    = EARTH
REF_FRAME      = TEME
TIME_SYSTEM    = UTC
MEAN_ELEMENT_THEORY = SGP/SGP4

EPOCH          = 2025-12-19T09:01:45.234336
MEAN_MOTION    = 14.92845388
ECCENTRICITY   = .001198
INCLINATION    = 97.7401
RA_OF_ASC_NODE = 280.4810
ARG_OF_PERICENTER = 255.6276
MEAN_ANOMALY   = 104.3614

EPHEMERIS_TYPE = 0
CLASSIFICATION_TYPE = U
NORAD_CAT_ID   = 66659
ELEMENT_SET_NO = 999
REV_AT_EPOCH   = 339
BSTAR          = .14908E-3
MEAN_MOTION_DOT = .1489E-4
MEAN_MOTION_DDOT = 0

CCSDS_OMM_VERS = 2.0
CREATION_DATE  = 
ORIGINATOR     = 

OBJECT_NAME    = K-HERO
OBJECT_ID      = 2025-274L
CENTER_NAME    = EARTH
REF_FRAME      = TEME
TIME_SYSTEM    = UTC
MEAN_ELEMENT_THEORY = SGP/SGP4

EPOCH          = 2025-12-19T08:58:28.231104
MEAN_MOTION    = 14.92997006
ECCENTRICITY   = .0012565
INCLINATION    = 97.7404
RA_OF_ASC_NODE = 280.4848
ARG_OF_PERICENTER = 256.3531
MEAN_ANOMALY   = 103.6289

EPHEMERIS_TYPE = 0
CLASSIFICATION_TYPE = U
NORAD_CAT_ID   = 66660
ELEMENT_SET_NO = 999
REV_AT_EPOCH   = 339
BSTAR          = .16428E-3
MEAN_MOTION_DOT = .1653E-4
MEAN_MOTION_DDOT = 0

CCSDS_OMM_VERS = 2.0
CREATION_DATE  = 
ORIGINATOR     = 

OBJECT_NAME    = SNUGLITE-III
OBJECT_ID      = 2025-274M
CENTER_NAME    = EARTH
REF_FRAME      = TEME
TIME_SYSTEM    = UTC
MEAN_ELEMENT_THEORY = SGP/SGP4

EPOCH          = 2025-12-19T04:05:47.445792
MEAN_MOTION    = 14.93131354
ECCENTRICITY   = .00131617
INCLINATION    = 97.7404
RA_OF_ASC_NODE = 280.2891
ARG_OF_PERICENTER = 258.3586
MEAN_ANOMALY   = 101.6156

EPHEMERIS_TYPE = 0
CLASSIFICATION_TYPE = U
NORAD_CAT_ID   = 66661
ELEMENT_SET_NO = 999
REV_AT_EPOCH   = 336
BSTAR          = .17599835E-3
MEAN_MOTION_DOT = .1781E-4
MEAN_MOTION_DDOT = 0

CCSDS_OMM_VERS = 2.0
CREATION_DATE  = 
ORIGINATOR     = 

OBJECT_NAME    = 2025-274N
OBJECT_ID      = 2025-274N
CENTER_NAME    = EARTH
REF_FRAME      = TEME
TIME_SYSTEM    = UTC
MEAN_ELEMENT_THEORY = SGP/SGP4

EPOCH          = 2025-12-19T18:33:01.996128
MEAN_MOTION    = 14.93187641
ECCENTRICITY   = .0013627
INCLINATION    = 97.7406
RA_OF_ASC_NODE = 280.8840
ARG_OF_PERICENTER = 255.8847
MEAN_ANOMALY   = 104.0858

EPHEMERIS_TYPE = 0
CLASSIFICATION_TYPE = U
NORAD_CAT_ID   = 66662
ELEMENT_SET_NO = 999
REV_AT_EPOCH   = 345
BSTAR          = .14907E-3
MEAN_MOTION_DOT = .1502E-4
MEAN_MOTION_DDOT = 0

CCSDS_OMM_VERS = 2.0
CREATION_DATE  = 
ORIGINATOR     = 

OBJECT_NAME    = KSLV-II R/B
OBJECT_ID      = 2025-274P
CENTER_NAME    = EARTH
REF_FRAME      = TEME
TIME_SYSTEM    = UTC
MEAN_ELEMENT_THEORY = SGP/SGP4

EPOCH          = 2025-12-19T10:34:51.191328
MEAN_MOTION    = 14.97431230
ECCENTRICITY   = .0056856
INCLINATION    = 97.7415
RA_OF_ASC_NODE = 280.7205
ARG_OF_PERICENTER = 296.2719
MEAN_ANOMALY   = 63.2667

EPHEMERIS_TYPE = 0
CLASSIFICATION_TYPE = U
NORAD_CAT_ID   = 66663
ELEMENT_SET_NO = 999
REV_AT_EPOCH   = 341
BSTAR          = .65743E-3
MEAN_MOTION_DOT = .7848E-4
MEAN_MOTION_DDOT = 0

CCSDS_OMM_VERS = 2.0
CREATION_DATE  = 
ORIGINATOR     = 

OBJECT_NAME    = SOYUZ-MS 28
OBJECT_ID      = 2025-275A
CENTER_NAME    = EARTH
REF_FRAME      = TEME
TIME_SYSTEM    = UTC
MEAN_ELEMENT_THEORY = SGP/SGP4

EPOCH          = 2025-12-19T10:35:44.374848
MEAN_MOTION    = 15.49667075
ECCENTRICITY   = .0003173
INCLINATION    = 51.6317
RA_OF_ASC_NODE = 109.2912
ARG_OF_PERICENTER = 271.3280
MEAN_ANOMALY   = 88.7345

EPHEMERIS_TYPE = 0
CLASSIFICATION_TYPE = U
NORAD_CAT_ID   = 66664
ELEMENT_SET_NO = 999
REV_AT_EPOCH   = 348
BSTAR          = .12809E-3
MEAN_MOTION_DOT = .6778E-4
MEAN_MOTION_DDOT = 0

CCSDS_OMM_VERS = 2.0
CREATION_DATE  = 
ORIGINATOR     = 

OBJECT_NAME    = TRANSPORTER-15 A
OBJECT_ID      = 2025-276A
CENTER_NAME    = EARTH
REF_FRAME      = TEME
TIME_SYSTEM    = UTC
MEAN_ELEMENT_THEORY = SGP/SGP4

EPOCH          = 2025-12-19T15:08:58.947648
MEAN_MOTION    = 15.00323115
ECCENTRICITY   = .0003626
INCLINATION    = 97.6579
RA_OF_ASC_NODE = 65.4755
ARG_OF_PERICENTER = 203.9706
MEAN_ANOMALY   = 156.1350

EPHEMERIS_TYPE = 0
CLASSIFICATION_TYPE = U
NORAD_CAT_ID   = 66666
ELEMENT_SET_NO = 999
REV_AT_EPOCH   = 312
BSTAR          = .16654E-3
MEAN_MOTION_DOT = .2029E-4
MEAN_MOTION_DDOT = 0

CCSDS_OMM_VERS = 2.0
CREATION_DATE  = 
ORIGINATOR     = 

OBJECT_NAME    = PELICAN-5
OBJECT_ID      = 2025-276B
CENTER_NAME    = EARTH
REF_FRAME      = TEME
TIME_SYSTEM    = UTC
MEAN_ELEMENT_THEORY = SGP/SGP4

EPOCH          = 2025-12-19T20:00:01.999008
MEAN_MOTION    = 15.17611784
ECCENTRICITY   = .0001873
INCLINATION    = 97.4429
RA_OF_ASC_NODE = 65.4860
ARG_OF_PERICENTER = 225.0050
MEAN_ANOMALY   = 5.0425

EPHEMERIS_TYPE = 0
CLASSIFICATION_TYPE = U
NORAD_CAT_ID   = 66667
ELEMENT_SET_NO = 999
REV_AT_EPOCH   = 211
BSTAR          = -.26606E-2
MEAN_MOTION_DOT = -.53134E-3
MEAN_MOTION_DDOT = 0

CCSDS_OMM_VERS = 2.0
CREATION_DATE  = 
ORIGINATOR     = 

OBJECT_NAME    = TRANSPORTER-15 C
OBJECT_ID      = 2025-276C
CENTER_NAME    = EARTH
REF_FRAME      = TEME
TIME_SYSTEM    = UTC
MEAN_ELEMENT_THEORY = SGP/SGP4

EPOCH          = 2025-12-19T11:24:02.496096
MEAN_MOTION    = 15.17037744
ECCENTRICITY   = .0007942
INCLINATION    = 97.4294
RA_OF_ASC_NODE = 65.0673
ARG_OF_PERICENTER = 280.2049
MEAN_ANOMALY   = 79.8289

EPHEMERIS_TYPE = 0
CLASSIFICATION_TYPE = U
NORAD_CAT_ID   = 66668
ELEMENT_SET_NO = 999
REV_AT_EPOCH   = 314
BSTAR          = .82161E-3
MEAN_MOTION_DOT = .16221E-3
MEAN_MOTION_DDOT = 0

CCSDS_OMM_VERS = 2.0
CREATION_DATE  = 
ORIGINATOR     = 

OBJECT_NAME    = TRANSPORTER-15 D
OBJECT_ID      = 2025-276D
CENTER_NAME    = EARTH
REF_FRAME      = TEME
TIME_SYSTEM    = UTC
MEAN_ELEMENT_THEORY = SGP/SGP4

EPOCH          = 2025-12-19T14:31:47.894016
MEAN_MOTION    = 15.17183055
ECCENTRICITY   = .0007001
INCLINATION    = 97.4342
RA_OF_ASC_NODE = 65.2118
ARG_OF_PERICENTER = 276.4334
MEAN_ANOMALY   = 83.6102

EPHEMERIS_TYPE = 0
CLASSIFICATION_TYPE = U
NORAD_CAT_ID   = 66669
ELEMENT_SET_NO = 999
REV_AT_EPOCH   = 316
BSTAR          = .74952E-3
MEAN_MOTION_DOT = .14848E-3
MEAN_MOTION_DDOT = 0

CCSDS_OMM_VERS = 2.0
CREATION_DATE  = 
ORIGINATOR     = 

OBJECT_NAME    = TRANSPORTER-15 E
OBJECT_ID      = 2025-276E
CENTER_NAME    = EARTH
REF_FRAME      = TEME
TIME_SYSTEM    = UTC
MEAN_ELEMENT_THEORY = SGP/SGP4

EPOCH          = 2025-12-19T11:22:24.623040
MEAN_MOTION    = 15.17103013
ECCENTRICITY   = .0007206
INCLINATION    = 97.4314
RA_OF_ASC_NODE = 65.0747
ARG_OF_PERICENTER = 284.9130
MEAN_ANOMALY   = 75.1306

EPHEMERIS_TYPE = 0
CLASSIFICATION_TYPE = U
NORAD_CAT_ID   = 66670
ELEMENT_SET_NO = 999
REV_AT_EPOCH   = 314
BSTAR          = .84831E-3
MEAN_MOTION_DOT = .16781E-3
MEAN_MOTION_DDOT = 0

CCSDS_OMM_VERS = 2.0
CREATION_DATE  = 
ORIGINATOR     = 

OBJECT_NAME    = TRANSPORTER-15 F
OBJECT_ID      = 2025-276F
CENTER_NAME    = EARTH
REF_FRAME      = TEME
TIME_SYSTEM    = UTC
MEAN_ELEMENT_THEORY = SGP/SGP4

EPOCH          = 2025-12-19T11:19:08.697216
MEAN_MOTION    = 15.17038533
ECCENTRICITY   = .0005043
INCLINATION    = 97.4437
RA_OF_ASC_NODE = 65.1072
ARG_OF_PERICENTER = 266.7509
MEAN_ANOMALY   = 93.3148

EPHEMERIS_TYPE = 0
CLASSIFICATION_TYPE = U
NORAD_CAT_ID   = 66671
ELEMENT_SET_NO = 999
REV_AT_EPOCH   = 314
BSTAR          = .43711E-3
MEAN_MOTION_DOT = .8586E-4
MEAN_MOTION_DDOT = 0

CCSDS_OMM_VERS = 2.0
CREATION_DATE  = 
ORIGINATOR     = 

OBJECT_NAME    = TRANSPORTER-15 G
OBJECT_ID      = 2025-276G
CENTER_NAME    = EARTH
REF_FRAME      = TEME
TIME_SYSTEM    = UTC
MEAN_ELEMENT_THEORY = SGP/SGP4

EPOCH          = 2025-12-19T11:24:34.687872
MEAN_MOTION    = 15.16588384
ECCENTRICITY   = .0005356
INCLINATION    = 97.4407
RA_OF_ASC_NODE = 65.0954
ARG_OF_PERICENTER = 265.0081
MEAN_ANOMALY   = 95.0540

EPHEMERIS_TYPE = 0
CLASSIFICATION_TYPE = U
NORAD_CAT_ID   = 66672
ELEMENT_SET_NO = 999
REV_AT_EPOCH   = 314
BSTAR          = .15973E-3
MEAN_MOTION_DOT = .3054E-4
MEAN_MOTION_DDOT = 0

CCSDS_OMM_VERS = 2.0
CREATION_DATE  = 
ORIGINATOR     = 

OBJECT_NAME    = TRANSPORTER-15 H
OBJECT_ID      = 2025-276H
CENTER_NAME    = EARTH
REF_FRAME      = TEME
TIME_SYSTEM    = UTC
MEAN_ELEMENT_THEORY = SGP/SGP4

EPOCH          = 2025-12-19T11:20:35.424672
MEAN_MOTION    = 15.17051112
ECCENTRICITY   = .0005838
INCLINATION    = 97.4378
RA_OF_ASC_NODE = 65.0906
ARG_OF_PERICENTER = 283.6100
MEAN_ANOMALY   = 76.4483

EPHEMERIS_TYPE = 0
CLASSIFICATION_TYPE = U
NORAD_CAT_ID   = 66673
ELEMENT_SET_NO = 999
REV_AT_EPOCH   = 314
BSTAR          = .54613E-3
MEAN_MOTION_DOT = .10752E-3
MEAN_MOTION_DDOT = 0

